start=new Date('2022-10-01T00:00:00.000Z').valueOf();
sats=[{"EPHEMERIS_TYPE":"0","OBJECT_TYPE":"PAYLOAD","PERIOD":"95.437","OBJECT_ID":"2022-025T","MEAN_MOTION_DDOT":"0.0000000000000","ECCENTRICITY":"0.00019340","TLE_LINE2":"2 51973  53.2174 267.3794 0001934  50.2202 309.8960 15.08855301 31594","ELEMENT_SET_NO":"999","EPOCH":"2022-09-30T17:15:38.246688","OBJECT_NAME":"STARLINK-3679","TLE_LINE1":"1 51973U 22025T   22273.71919267  .00002930  00000-0  20202-3 0  9997","CENTER_NAME":"EARTH","BSTAR":"0.00020202000000","REV_AT_EPOCH":"3159","ARG_OF_PERICENTER":"50.2202","REF_FRAME":"TEME","MEAN_MOTION_DOT":"0.00002930","TIME_SYSTEM":"UTC","SITE":"AFETR","FILE":"3587966","LAUNCH_DATE":"2022-03-09","MEAN_ELEMENT_THEORY":"SGP4","CLASSIFICATION_TYPE":"U","MEAN_ANOMALY":"309.8960","NORAD_CAT_ID":"51973","APOAPSIS":"541.037","INCLINATION":"53.2174","SEMIMAJOR_AXIS":"6917.834","COUNTRY_CODE":"US","RA_OF_ASC_NODE":"267.3794","GP_ID":"213907225","DECAY_DATE":null,"RCS_SIZE":"LARGE","PERIAPSIS":"538.361","MEAN_MOTION":"15.08855301"},{"PERIAPSIS":"538.296","MEAN_MOTION":"15.08868044","DECAY_DATE":null,"GP_ID":"213907453","RCS_SIZE":"LARGE","RA_OF_ASC_NODE":"267.4322","COUNTRY_CODE":"US","APOAPSIS":"541.023","INCLINATION":"53.2153","SEMIMAJOR_AXIS":"6917.795","NORAD_CAT_ID":"51974","CLASSIFICATION_TYPE":"U","MEAN_ELEMENT_THEORY":"SGP4","LAUNCH_DATE":"2022-03-09","MEAN_ANOMALY":"322.3266","TIME_SYSTEM":"UTC","MEAN_MOTION_DOT":"0.00028292","FILE":"3587966","SITE":"AFETR","REV_AT_EPOCH":"3158","ARG_OF_PERICENTER":"37.7864","REF_FRAME":"TEME","BSTAR":"0.00178720000000","CENTER_NAME":"EARTH","OBJECT_NAME":"STARLINK-3672","TLE_LINE1":"1 51974U 22025U   22273.70816712  .00028292  00000-0  17872-2 0  9995","ELEMENT_SET_NO":"999","TLE_LINE2":"2 51974  53.2153 267.4322 0001971  37.7864 322.3266 15.08868044 31581","EPOCH":"2022-09-30T16:59:45.639168","ECCENTRICITY":"0.00019710","MEAN_MOTION_DDOT":"0.0000000000000","EPHEMERIS_TYPE":"0","PERIOD":"95.436","OBJECT_ID":"2022-025U","OBJECT_TYPE":"PAYLOAD"},{"EPOCH":"2022-09-30T17:01:08.259168","TLE_LINE2":"2 51975  53.2182 267.4396 0001994  48.2987 311.8176 15.08842830 31592","ELEMENT_SET_NO":"999","TLE_LINE1":"1 51975U 22025V   22273.70912337  .00008931  00000-0  57847-3 0  9991","OBJECT_NAME":"STARLINK-3674","PERIOD":"95.437","OBJECT_ID":"2022-025V","OBJECT_TYPE":"PAYLOAD","EPHEMERIS_TYPE":"0","ECCENTRICITY":"0.00019940","MEAN_MOTION_DDOT":"0.0000000000000","REF_FRAME":"TEME","ARG_OF_PERICENTER":"48.2987","REV_AT_EPOCH":"3159","FILE":"3587966","SITE":"AFETR","MEAN_MOTION_DOT":"0.00008931","TIME_SYSTEM":"UTC","CENTER_NAME":"EARTH","BSTAR":"0.00057847000000","SEMIMAJOR_AXIS":"6917.872","INCLINATION":"53.2182","APOAPSIS":"541.116","MEAN_ANOMALY":"311.8176","CLASSIFICATION_TYPE":"U","MEAN_ELEMENT_THEORY":"SGP4","LAUNCH_DATE":"2022-03-09","NORAD_CAT_ID":"51975","RCS_SIZE":"LARGE","DECAY_DATE":null,"GP_ID":"213906224","MEAN_MOTION":"15.08842830","PERIAPSIS":"538.357","COUNTRY_CODE":"US","RA_OF_ASC_NODE":"267.4396"},{"COUNTRY_CODE":"US","RA_OF_ASC_NODE":"277.4563","RCS_SIZE":"LARGE","DECAY_DATE":null,"GP_ID":"213906474","MEAN_MOTION":"15.08848493","PERIAPSIS":"538.254","MEAN_ANOMALY":"316.8069","CLASSIFICATION_TYPE":"U","MEAN_ELEMENT_THEORY":"SGP4","LAUNCH_DATE":"2022-03-09","NORAD_CAT_ID":"51976","SEMIMAJOR_AXIS":"6917.854","APOAPSIS":"541.185","INCLINATION":"53.2169","CENTER_NAME":"EARTH","BSTAR":"0.00004246400000","REF_FRAME":"TEME","ARG_OF_PERICENTER":"43.3090","REV_AT_EPOCH":"3145","FILE":"3587966","SITE":"AFETR","TIME_SYSTEM":"UTC","MEAN_MOTION_DOT":"0.00000388","PERIOD":"95.437","OBJECT_ID":"2022-025W","OBJECT_TYPE":"PAYLOAD","EPHEMERIS_TYPE":"0","ECCENTRICITY":"0.00021180","MEAN_MOTION_DDOT":"0.0000000000000","EPOCH":"2022-09-30T16:58:25.519584","ELEMENT_SET_NO":"999","TLE_LINE2":"2 51976  53.2169 277.4563 0002118  43.3090 316.8069 15.08848493 31457","TLE_LINE1":"1 51976U 22025W   22273.70723981  .00000388  00000-0  42464-4 0  9995","OBJECT_NAME":"STARLINK-3663"},{"COUNTRY_CODE":"US","RA_OF_ASC_NODE":"258.9502","DECAY_DATE":null,"GP_ID":"213879575","RCS_SIZE":"LARGE","PERIAPSIS":"538.537","MEAN_MOTION":"15.08852535","CLASSIFICATION_TYPE":"U","MEAN_ELEMENT_THEORY":"SGP4","LAUNCH_DATE":"2022-03-09","MEAN_ANOMALY":"303.8745","NORAD_CAT_ID":"51977","APOAPSIS":"540.877","INCLINATION":"53.2176","SEMIMAJOR_AXIS":"6917.842","CENTER_NAME":"EARTH","BSTAR":"-0.00015906000000","REV_AT_EPOCH":"3276","REF_FRAME":"TEME","ARG_OF_PERICENTER":"56.2408","TIME_SYSTEM":"UTC","MEAN_MOTION_DOT":"-0.00002820","FILE":"3587774","SITE":"AFETR","EPHEMERIS_TYPE":"0","PERIOD":"95.437","OBJECT_ID":"2022-025X","OBJECT_TYPE":"PAYLOAD","ECCENTRICITY":"0.00016910","MEAN_MOTION_DDOT":"0.0000000000000","TLE_LINE2":"2 51977  53.2176 258.9502 0001691  56.2408 303.8745 15.08852535 32768","ELEMENT_SET_NO":"999","EPOCH":"2022-09-30T08:58:50.587104","TLE_LINE1":"1 51977U 22025X   22273.37419661 -.00002820  00000-0 -15906-3 0  9991","OBJECT_NAME":"STARLINK-3660"},{"MEAN_MOTION_DDOT":"0.0000000000000","ECCENTRICITY":"0.00017550","EPHEMERIS_TYPE":"0","OBJECT_TYPE":"PAYLOAD","OBJECT_ID":"2022-025Y","PERIOD":"95.438","TLE_LINE1":"1 51978U 22025Y   22273.82867304  .00002200  00000-0  15629-3 0  9995","OBJECT_NAME":"STARLINK-3666","TLE_LINE2":"2 51978  53.2162 276.8922 0001755  47.0330 313.0809 15.08840627 31461","ELEMENT_SET_NO":"999","EPOCH":"2022-09-30T19:53:17.350656","BSTAR":"0.00015629000000","CENTER_NAME":"EARTH","MEAN_MOTION_DOT":"0.00002200","TIME_SYSTEM":"UTC","SITE":"AFETR","FILE":"3587966","REV_AT_EPOCH":"3146","ARG_OF_PERICENTER":"47.0330","REF_FRAME":"TEME","NORAD_CAT_ID":"51978","LAUNCH_DATE":"2022-03-09","MEAN_ELEMENT_THEORY":"SGP4","CLASSIFICATION_TYPE":"U","MEAN_ANOMALY":"313.0809","APOAPSIS":"540.958","INCLINATION":"53.2162","SEMIMAJOR_AXIS":"6917.878","RA_OF_ASC_NODE":"276.8922","COUNTRY_CODE":"US","PERIAPSIS":"538.529","MEAN_MOTION":"15.08840627","GP_ID":"213907953","DECAY_DATE":null,"RCS_SIZE":"LARGE"},{"EPOCH":"2022-09-30T17:03:44.023680","TLE_LINE2":"2 51979  53.2169 277.4403 0001685  58.4229 301.6928 15.08841401 31450","ELEMENT_SET_NO":"999","TLE_LINE1":"1 51979U 22025Z   22273.71092620 -.00000554  00000-0 -16737-4 0  9999","OBJECT_NAME":"STARLINK-3656","OBJECT_ID":"2022-025Z","PERIOD":"95.437","OBJECT_TYPE":"PAYLOAD","EPHEMERIS_TYPE":"0","ECCENTRICITY":"0.00016850","MEAN_MOTION_DDOT":"0.0000000000000","REF_FRAME":"TEME","ARG_OF_PERICENTER":"58.4229","REV_AT_EPOCH":"3145","FILE":"3587966","SITE":"AFETR","TIME_SYSTEM":"UTC","MEAN_MOTION_DOT":"-0.00000554","CENTER_NAME":"EARTH","BSTAR":"-0.00001673700000","SEMIMAJOR_AXIS":"6917.876","APOAPSIS":"540.907","INCLINATION":"53.2169","MEAN_ANOMALY":"301.6928","CLASSIFICATION_TYPE":"U","MEAN_ELEMENT_THEORY":"SGP4","LAUNCH_DATE":"2022-03-09","NORAD_CAT_ID":"51979","RCS_SIZE":"LARGE","DECAY_DATE":null,"GP_ID":"213906724","MEAN_MOTION":"15.08841401","PERIAPSIS":"538.575","COUNTRY_CODE":"US","RA_OF_ASC_NODE":"277.4403"},{"GP_ID":"213876908","DECAY_DATE":null,"RCS_SIZE":"LARGE","PERIAPSIS":"538.502","MEAN_MOTION":"15.08854884","COUNTRY_CODE":"US","RA_OF_ASC_NODE":"279.3019","APOAPSIS":"540.897","INCLINATION":"53.2165","SEMIMAJOR_AXIS":"6917.835","MEAN_ELEMENT_THEORY":"SGP4","LAUNCH_DATE":"2022-03-09","CLASSIFICATION_TYPE":"U","MEAN_ANOMALY":"297.5865","NORAD_CAT_ID":"51980","REV_AT_EPOCH":"3138","REF_FRAME":"TEME","ARG_OF_PERICENTER":"62.5303","MEAN_MOTION_DOT":"0.00002099","TIME_SYSTEM":"UTC","SITE":"AFETR","FILE":"3587752","CENTER_NAME":"EARTH","BSTAR":"0.00014990000000","TLE_LINE2":"2 51980  53.2165 279.3019 0001731  62.5303 297.5865 15.08854884 31387","ELEMENT_SET_NO":"999","EPOCH":"2022-09-30T06:59:35.905056","OBJECT_NAME":"STARLINK-3649","TLE_LINE1":"1 51980U 22025AA  22273.29138779  .00002099  00000-0  14990-3 0  9992","EPHEMERIS_TYPE":"0","OBJECT_TYPE":"PAYLOAD","PERIOD":"95.437","OBJECT_ID":"2022-025AA","MEAN_MOTION_DDOT":"0.0000000000000","ECCENTRICITY":"0.00017310"},{"COUNTRY_CODE":"US","RA_OF_ASC_NODE":"278.3519","DECAY_DATE":null,"GP_ID":"213907226","RCS_SIZE":"LARGE","PERIAPSIS":"538.151","MEAN_MOTION":"15.08833495","CLASSIFICATION_TYPE":"U","MEAN_ELEMENT_THEORY":"SGP4","LAUNCH_DATE":"2022-03-09","MEAN_ANOMALY":"319.3529","NORAD_CAT_ID":"51981","INCLINATION":"53.2136","APOAPSIS":"541.379","SEMIMAJOR_AXIS":"6917.900","CENTER_NAME":"EARTH","BSTAR":"-0.00006790600000","REV_AT_EPOCH":"3141","ARG_OF_PERICENTER":"40.7637","REF_FRAME":"TEME","TIME_SYSTEM":"UTC","MEAN_MOTION_DOT":"-0.00001369","FILE":"3587966","SITE":"AFETR","EPHEMERIS_TYPE":"0","PERIOD":"95.438","OBJECT_ID":"2022-025AB","OBJECT_TYPE":"PAYLOAD","ECCENTRICITY":"0.00023330","MEAN_MOTION_DDOT":"0.0000000000000","ELEMENT_SET_NO":"999","TLE_LINE2":"2 51981  53.2136 278.3519 0002333  40.7637 319.3529 15.08833495 31416","EPOCH":"2022-09-30T12:06:58.418784","OBJECT_NAME":"STARLINK-3635","TLE_LINE1":"1 51981U 22025AB  22273.50484281 -.00001369  00000-0 -67906-4 0  9996"},{"FILE":"3587966","SITE":"AFETR","MEAN_MOTION_DOT":"0.00003012","TIME_SYSTEM":"UTC","REF_FRAME":"TEME","ARG_OF_PERICENTER":"42.0399","REV_AT_EPOCH":"3145","BSTAR":"0.00020716000000","CENTER_NAME":"EARTH","OBJECT_NAME":"STARLINK-3650","TLE_LINE1":"1 51982U 22025AC  22273.75138689  .00003012  00000-0  20716-3 0  9994","EPOCH":"2022-09-30T18:01:59.827296","ELEMENT_SET_NO":"999","TLE_LINE2":"2 51982  53.2175 277.2396 0002099  42.0399 318.0754 15.08857135 31457","ECCENTRICITY":"0.00020990","MEAN_MOTION_DDOT":"0.0000000000000","OBJECT_ID":"2022-025AC","PERIOD":"95.436","OBJECT_TYPE":"PAYLOAD","EPHEMERIS_TYPE":"0","MEAN_MOTION":"15.08857135","PERIAPSIS":"538.241","RCS_SIZE":"LARGE","DECAY_DATE":null,"GP_ID":"213907454","RA_OF_ASC_NODE":"277.2396","COUNTRY_CODE":"US","SEMIMAJOR_AXIS":"6917.828","APOAPSIS":"541.145","INCLINATION":"53.2175","NORAD_CAT_ID":"51982","MEAN_ANOMALY":"318.0754","CLASSIFICATION_TYPE":"U","LAUNCH_DATE":"2022-03-09","MEAN_ELEMENT_THEORY":"SGP4"}];
